NORAD_CAT_ID,OBJECT_NAME,OBJECT_TYPE,EPOCH,MEAN_MOTION,ECCENTRICITY,INCLINATION,RA_OF_ASC_NODE,ARG_OF_PERICENTER,MEAN_ANOMALY,BSTAR,MEAN_MOTION_DOT,MEAN_MOTION_DDOT,TLE_LINE0,TLE_LINE1,TLE_LINE2,SEMIMAJOR_AXIS,PERIOD,APOGEE,PERIGEE,DECAYED
56459.0,STARLINK-6048,PAYLOAD,2024-04-11 05:03:04,14.98328424,0.0003083,69.9985,102.9204,270.6655,89.415,9.0991e-06,1.6e-07,0.0,0 STARLINK-6048,1 56459U 23064M   24102.21046890  .00000016  00000-0  90991-5 0  9993,2 56459  69.9985 102.9204 0003083 270.6655  89.4150 14.98328424 51132,6950.198,96.107,574.206,569.92,0.0
56459.0,STARLINK-6048,PAYLOAD,2024-04-11 09:51:28,14.98329079,0.0003067,69.9985,102.4152,270.1708,89.91,2.668e-05,2.25e-06,0.0,0 STARLINK-6048,1 56459U 23064M   24102.41074807  .00000225  00000-0  26680-4 0  9999,2 56459  69.9985 102.4152 0003067 270.1708  89.9100 14.98329079 50805,6950.196,96.107,574.192,569.929,0.0
56459.0,STARLINK-6048,PAYLOAD,2024-04-11 17:52:08,14.98330155,0.0003077,69.9986,101.5736,270.221,89.8597,3.6567e-05,3.43e-06,0.0,0 STARLINK-6048,1 56459U 23064M   24102.74454722  .00000343  00000-0  36567-4 0  9999,2 56459  69.9986 101.5736 0003077 270.2210  89.8597 14.98330155 50855,6950.192,96.107,574.196,569.919,0.0
56459.0,STARLINK-6048,PAYLOAD,2024-04-12 05:05:05,14.9833149,0.0003116,69.9983,100.3953,270.0291,90.0511,3.5223e-05,3.27e-06,0.0,0 STARLINK-6048,1 56459U 23064M   24103.21186597  .00000327  00000-0  35223-4 0  9994,2 56459  69.9983 100.3953 0003116 270.0291  90.0511 14.98331490 51282,6950.188,96.107,574.219,569.888,0.0
56459.0,STARLINK-6048,PAYLOAD,2024-04-12 09:53:29,14.98332162,0.0003075,69.9985,99.8902,270.1811,89.8996,4.932e-05,4.96e-06,0.0,0 STARLINK-6048,1 56459U 23064M   24103.41214502  .00000496  00000-0  49320-4 0  9994,2 56459  69.9985  99.8902 0003075 270.1811  89.8996 14.98332162 50956,6950.186,96.107,574.188,569.914,0.0
56459.0,STARLINK-6048,PAYLOAD,2024-04-12 22:42:34,14.9832965,0.0003083,69.9984,98.5436,269.9946,90.0859,1.948e-05,1.39e-06,0.0,0 STARLINK-6048,1 56459U 23064M   24103.94622701  .00000139  00000-0  19480-4 0  9994,2 56459  69.9984  98.5436 0003083 269.9946  90.0859 14.98329650 51037,6950.194,96.107,574.202,569.916,0.0
56459.0,STARLINK-6048,PAYLOAD,2024-04-13 05:07:06,14.98330923,0.0002995,69.9986,97.8703,266.9631,93.1186,3.0933e-05,2.76e-06,0.0,0 STARLINK-6048,1 56459U 23064M   24104.21326572  .00000276  00000-0  30933-4 0  9990,2 56459  69.9986  97.8703 0002995 266.9631  93.1186 14.98330923 51433,6950.19,96.107,574.137,569.973,0.0
56459.0,STARLINK-6048,PAYLOAD,2024-04-13 09:55:29,14.98355399,0.0003104,69.9986,97.3654,270.4804,89.5999,-0.00038041,-4.632e-05,0.0,0 STARLINK-6048,1 56459U 23064M   24104.41353932 -.00004632  00000-0 -38041-3 0  9991,2 56459  69.9986  97.3654 0003104 270.4804  89.5999 14.98355399 51466,6950.114,96.105,574.137,569.822,0.0
56459.0,STARLINK-6048,PAYLOAD,2024-04-14 03:32:58,14.98331443,0.0003031,69.9988,95.5142,268.2944,91.7867,2.4808e-05,2.03e-06,0.0,0 STARLINK-6048,1 56459U 23064M   24105.14790485  .00000203  00000-0  24808-4 0  9995,2 56459  69.9988  95.5142 0003031 268.2944  91.7867 14.98331443 51574,6950.188,96.107,574.16,569.947,0.0
56459.0,STARLINK-6048,PAYLOAD,2024-04-14 22:46:35,14.98331027,0.0002467,69.9998,93.4946,259.3263,100.7618,4.5651e-05,4.52e-06,0.0,0 STARLINK-6048,1 56459U 23064M   24105.94902427  .00000452  00000-0  45651-4 0  9999,2 56459  69.9998  93.4946 0002467 259.3263 100.7618 14.98331027 51338,6950.19,96.107,573.769,570.34,0.0
56459.0,STARLINK-6048,PAYLOAD,2024-04-15 03:34:59,14.98330546,0.0002716,69.9994,92.9894,264.7365,95.3484,3.1794e-05,2.86e-06,0.0,0 STARLINK-6048,1 56459U 23064M   24106.14930482  .00000286  00000-0  31794-4 0  9992,2 56459  69.9994  92.9894 0002716 264.7365  95.3484 14.98330546 51728,6950.191,96.107,573.944,570.169,0.0
56459.0,STARLINK-6048,PAYLOAD,2024-04-15 09:59:32,14.98330537,0.0002801,69.9994,92.3161,266.4469,93.6369,2.9624e-05,2.61e-06,0.0,0 STARLINK-6048,1 56459U 23064M   24106.41634496  .00000261  00000-0  29624-4 0  9990,2 56459  69.9994  92.3161 0002801 266.4469  93.6369 14.98330537 51406,6950.191,96.107,574.003,570.109,0.0
56459.0,STARLINK-6048,PAYLOAD,2024-04-16 05:13:08,14.98332864,0.0003012,69.9989,90.2958,271.4129,88.6685,3.6345e-05,3.41e-06,0.0,0 STARLINK-6048,1 56459U 23064M   24107.21746299  .00000341  00000-0  36345-4 0  9991,2 56459  69.9989  90.2958 0003012 271.4129  88.6685 14.98332864 51887,6950.184,96.107,574.142,569.956,0.0
56459.0,STARLINK-6048,PAYLOAD,2024-04-16 08:25:24,14.98334266,0.0002983,69.9992,89.9589,269.4086,90.6731,8.6625e-05,9.41e-06,0.0,0 STARLINK-6048,1 56459U 23064M   24107.35098031  .00000941  00000-0  86625-4 0  9992,2 56459  69.9992  89.9589 0002983 269.4086  90.6731 14.98334266 51547,6950.18,96.107,574.118,569.971,0.0
56459.0,STARLINK-6048,PAYLOAD,2024-04-16 22:50:37,14.98332992,0.0002954,69.999,88.4429,269.0621,91.02,5.505e-05,5.64e-06,0.0,0 STARLINK-6048,1 56459U 23064M   24107.95182054  .00000564  00000-0  55050-4 0  9996,2 56459  69.9990  88.4429 0002954 269.0621  91.0200 14.98332992 51631,6950.184,96.107,574.102,569.996,0.0
56459.0,STARLINK-6048,PAYLOAD,2024-04-17 05:15:09,14.98333904,0.0002961,69.999,87.7696,269.0538,91.0281,6.2953e-05,6.58e-06,0.0,0 STARLINK-6048,1 56459U 23064M   24108.21885953  .00000658  00000-0  62953-4 0  9998,2 56459  69.9990  87.7696 0002961 269.0538  91.0281 14.98333904 52032,6950.181,96.107,574.104,569.988,0.0
56459.0,STARLINK-6048,PAYLOAD,2024-04-17 08:27:25,14.98338457,0.0002932,69.9991,87.433,269.168,90.9143,0.00011331,1.26e-05,0.0,0 STARLINK-6048,1 56459U 23064M   24108.35237483  .00001260  00000-0  11331-3 0  9995,2 56459  69.9991  87.4330 0002932 269.1680  90.9143 14.98338457 51696,6950.167,96.106,574.07,569.994,0.0
56459.0,STARLINK-6048,PAYLOAD,2024-04-18 03:41:03,14.98323764,0.0002676,70.0,85.4141,273.5708,86.5145,-7.2442e-05,-9.57e-06,0.0,0 STARLINK-6048,1 56459U 23064M   24109.15351056 -.00000957  00000-0 -72442-4 0  9992,2 56459  70.0000  85.4141 0002676 273.5708  86.5145 14.98323764 52175,6950.212,96.107,573.937,570.217,0.0
56459.0,STARLINK-6048,PAYLOAD,2024-04-18 08:29:27,14.98310954,0.0002529,70.0004,84.9092,271.3981,88.6889,0.00015329,1.736e-05,0.0,0 STARLINK-6048,1 56459U 23064M   24109.35379434  .00001736  00000-0  15329-3 0  9998,2 56459  70.0004  84.9092 0002529 271.3981  88.6889 14.98310954 51842,6950.252,96.108,573.875,570.359,0.0
56459.0,STARLINK-6048,PAYLOAD,2024-04-18 22:54:39,14.98330161,0.0002921,69.9994,83.3935,271.6648,88.4176,2.6157e-06,-6.2e-07,0.0,0 STARLINK-6048,1 56459U 23064M   24109.95462514 -.00000062  00000-0  26157-5 0  9991,2 56459  69.9994  83.3935 0002921 271.6648  88.4176 14.98330161 51934,6950.192,96.107,574.088,570.027,0.0
56459.0,STARLINK-6048,PAYLOAD,2024-04-19 05:19:11,14.98333105,0.0002896,69.9995,82.7212,262.1754,97.9077,4.0193e-05,3.87e-06,0.0,0 STARLINK-6048,1 56459U 23064M   24110.22166195  .00000387  00000-0  40193-4 0  9993,2 56459  69.9995  82.7212 0002896 262.1754  97.9077 14.98333105 52331,6950.183,96.107,574.061,570.036,0.0
56459.0,STARLINK-6048,PAYLOAD,2024-04-19 08:31:27,14.9833611,0.0003053,69.9997,82.3845,265.5383,94.5427,8.3023e-05,8.98e-06,0.0,0 STARLINK-6048,1 56459U 23064M   24110.35517867  .00000898  00000-0  83023-4 0  9999,2 56459  69.9997  82.3845 0003053 265.5383  94.5427 14.98336110 51994,6950.174,96.107,574.161,569.917,0.0
56459.0,STARLINK-6048,PAYLOAD,2024-04-20 05:21:14,14.98303316,0.0002535,70.0002,80.1978,254.6639,105.424,-0.00015639,-1.957e-05,0.0,0 STARLINK-6048,1 56459U 23064M   24111.22308646 -.00001957  00000-0 -15639-3 0  9995,2 56459  70.0002  80.1978 0002535 254.6639 105.4240 14.98303316 52486,6950.275,96.109,573.902,570.379,0.0
56459.0,STARLINK-6048,PAYLOAD,2024-04-20 06:57:22,14.98302966,0.0002576,69.9999,80.0285,265.2739,94.8126,-0.00015029,-1.884e-05,0.0,0 STARLINK-6048,1 56459U 23064M   24111.28984823 -.00001884  00000-0 -15029-3 0  9990,2 56459  69.9999  80.0285 0002576 265.2739  94.8126 14.98302966 52138,6950.276,96.109,573.932,570.351,0.0
56459.0,STARLINK-6048,PAYLOAD,2024-04-21 03:47:07,14.98320891,0.0002692,70.0,77.8409,271.6073,88.4778,-8.2287e-05,-1.074e-05,0.0,0 STARLINK-6048,1 56459U 23064M   24112.15772354 -.00001074  00000-0 -82287-4 0  9993,2 56459  70.0000  77.8409 0002692 271.6073  88.4778 14.98320891 52620,6950.221,96.108,573.957,570.215,0.0
56459.0,STARLINK-6048,PAYLOAD,2024-04-21 08:35:31,14.9832601,0.0002266,70.0012,77.337,248.4152,111.6765,2.7836e-06,-6e-07,0.0,0 STARLINK-6048,1 56459U 23064M   24112.35799791 -.00000060  00000-0  27836-5 0  9992,2 56459  70.0012  77.3370 0002266 248.4152 111.6765 14.98326010 52299,6950.205,96.107,573.645,570.495,0.0
56459.0,STARLINK-6048,PAYLOAD,2024-04-21 23:00:42,14.98345404,0.0002795,69.9994,75.821,255.9208,104.1641,4.0946e-05,3.96e-06,0.0,0 STARLINK-6048,1 56459U 23064M   24112.95882462  .00000396  00000-0  40946-4 0  9993,2 56459  69.9994  75.8210 0002795 255.9208 104.1641 14.98345404 52381,6950.145,96.106,573.953,570.068,0.0
56459.0,STARLINK-6048,PAYLOAD,2024-04-22 03:49:06,14.98346939,0.0002437,70.0002,75.3165,254.2034,105.8856,0.00010783,1.194e-05,0.0,0 STARLINK-6048,1 56459U 23064M   24113.15910067  .00001194  00000-0  10783-3 0  9991,2 56459  70.0002  75.3165 0002437 254.2034 105.8856 14.98346939 52773,6950.141,96.106,573.699,570.312,0.0
56459.0,STARLINK-6048,PAYLOAD,2024-04-22 07:01:21,14.98351811,0.000244,70.0019,74.9834,222.8901,137.2068,0.00016405,1.866e-05,0.0,0 STARLINK-6048,1 56459U 23064M   24113.29261482  .00001866  00000-0  16405-3 0  9999,2 56459  70.0019  74.9834 0002440 222.8901 137.2068 14.98351811 52798,6950.125,96.106,573.686,570.295,0.0
56459.0,STARLINK-6048,PAYLOAD,2024-04-22 23:02:45,14.98311113,0.0002594,70.0083,73.3094,195.9281,164.1797,0.00015013,1.698e-05,0.0,0 STARLINK-6048,1 56459U 23064M   24113.96024650  .00001698  00000-0  15013-3 0  9994,2 56459  70.0083  73.3094 0002594 195.9281 164.1797 14.98311113 52532,6950.251,96.108,573.919,570.313,0.0
